KUIPER-00044            
1 64505U 25134F   25292.88287343  .00006059  00000+0  82188-3 0  9997
2 64505  51.8972 149.2403 0013439 162.1273 198.0165 14.79951268 19034
KUIPER-00046            
1 64506U 25134G   25292.88372612  .00007245  00000+0  98575-3 0  9997
2 64506  51.8978 145.6741 0012283 173.0022 187.1114 14.79578861 19087
KUIPER-00047            
1 64507U 25134H   25292.90820405  .00025445  00000+0  11430-2 0  9995
2 64507  51.8638 121.9177 0010686 189.3379 170.7403 15.20949390 19413
KUIPER-00048            
1 64508U 25134J   25293.00001157  .00060599  00000+0  33900-2 0  9998
2 64508  51.8803 120.3772 0003143 227.6496 232.5910 15.12879797  5248
KUIPER-00049            
1 64509U 25134K   25292.96932334 -.00011873  00000+0 -15304-2 0  9994
2 64509  51.8985 131.3158 0004208 156.0875 204.0283 14.79943912 19299
KUIPER-00050            
1 64510U 25134L   25292.00547674  .00009731  00000+0  88509-3 0  9996
2 64510  51.8889 135.3449 0005534 194.5376 165.5435 14.95754539 19155
KUIPER-00051            
1 64511U 25134M   25293.00001157  .00068864  00000+0  89798-2 0  9991
2 64511  51.8997 128.7418 0002440 179.6112 328.1947 14.79885941  5540
KUIPER-00052            
1 64512U 25134N   25292.92225725  .00165726  00000+0  18373-2 0  9997
2 64512  51.8688 106.6719 0007855 208.9525 151.1037 15.61865172 19620
